[{"OBJECT_NAME":"STARLINK-36373","OBJECT_ID":"2026-040AA","EPOCH":"2026-03-09T22:00:01.999584","MEAN_MOTION":16.06603265,"ECCENTRICITY":8.725e-5,"INCLINATION":97.2766,"RA_OF_ASC_NODE":17.1272,"ARG_OF_PERICENTER":96.133,"MEAN_ANOMALY":292.8748,"EPHEMERIS_TYPE":0,"CLASSIFICATION_TYPE":"U","NORAD_CAT_ID":68039,"ELEMENT_SET_NO":999,"REV_AT_EPOCH":241,"BSTAR":-0.0015605454,"MEAN_MOTION_DOT":-0.01162336,"MEAN_MOTION_DDOT":0.00046793907},{"OBJECT_NAME":"ATLAS CENTAUR R\/B","OBJECT_ID":"2012-048N","EPOCH":"2026-03-09T22:10:29.696448","MEAN_MOTION":15.92956396,"ECCENTRICITY":0.00225847,"INCLINATION":64.6216,"RA_OF_ASC_NODE":226.7555,"ARG_OF_PERICENTER":234.3173,"MEAN_ANOMALY":125.5886,"EPHEMERIS_TYPE":0,"CLASSIFICATION_TYPE":"U","NORAD_CAT_ID":38770,"ELEMENT_SET_NO":999,"REV_AT_EPOCH":10335,"BSTAR":0.0011406583,"MEAN_MOTION_DOT":0.00408861,"MEAN_MOTION_DDOT":7.1817314e-5}]
